ONEWEB-0340             
1 49206U 21083W   25192.14511029  .00000035  00000+0  56549-4 0  9997
2 49206  87.9125  43.2105 0001736  86.0010 274.1320 13.18684435186313
ONEWEB-0341             
1 49207U 21083X   25191.62058810 -.00000114  00000+0 -32102-3 0  9992
2 49207  87.9128  43.3255 0001835  67.5148 292.6178 13.18685896184978
ONEWEB-0342             
1 49208U 21083Y   25191.46046653  .00000096  00000+0  20536-3 0  9992
2 49208  87.9265 342.5096 0002005  95.2136 264.9226 13.20769857191677
ONEWEB-0343             
1 49209U 21083Z   25192.52700353  .00000061  00000+0  12301-3 0  9998
2 49209  87.9126  43.1318 0002122  70.6285 289.5076 13.18686441186435
ONEWEB-0344             
1 49210U 21083AA  25192.52982417  .00000344  00000+0  90720-3 0  9998
2 49210  87.8957  27.9626 0001672  73.1200 287.0112 13.13470916187476
ONEWEB-0345             
1 49211U 21083AB  25191.53105328  .00000334  00000+0  88095-3 0  9998
2 49211  87.8955  28.1138 0001661  71.9203 288.2107 13.13471098186055
ONEWEB-0346             
1 49212U 21083AC  25192.15665926 -.00000008  00000+0 -54087-4 0  9998
2 49212  87.9125  43.2276 0001278  99.7616 260.3661 13.18685578186328
ONEWEB-0348             
1 49213U 21083AD  25192.13282799 -.00001043  00000+0 -25977-2 0  9994
2 49213  87.9274 342.3851 0001158  89.2842 270.8424 13.20759635193092
